{
  "norad_id": 63918,
  "name": "YAOGAN-40 02A",
  "history": [
    {
      "epoch": "2026-03-28T20:58:39.749088Z",
      "apogee_km": 852.3378448367412,
      "perigee_km": 849.7869495374498,
      "latitude_deg": -1.9050334652252943e-05,
      "longitude_deg": 82.9820176992978,
      "height_km": 853.8958325679213,
      "semi_major_axis_km": 7229.199397187095,
      "eccentricity": 0.00017643,
      "inclination_deg": 85.9953,
      "raan_deg": 223.9359,
      "arg_perigee_deg": 81.979,
      "mean_anomaly_deg": 278.1593,
      "mean_motion_rev_day": 14.12431701
    },
    {
      "epoch": "2026-03-29T03:46:43.273920Z",
      "apogee_km": 852.3336584323042,
      "perigee_km": 849.790426209217,
      "latitude_deg": -6.458266429123191e-05,
      "longitude_deg": -19.438978528388315,
      "height_km": 853.8984636917625,
      "semi_major_axis_km": 7229.199042320761,
      "eccentricity": 0.0001759,
      "inclination_deg": 85.9953,
      "raan_deg": 223.8089,
      "arg_perigee_deg": 82.0898,
      "mean_anomaly_deg": 278.0484,
      "mean_motion_rev_day": 14.12431805
    }
  ]
}